NORAD_CAT_ID,OBJECT_NAME,OBJECT_TYPE,EPOCH,MEAN_MOTION,ECCENTRICITY,INCLINATION,RA_OF_ASC_NODE,ARG_OF_PERICENTER,MEAN_ANOMALY,BSTAR,MEAN_MOTION_DOT,MEAN_MOTION_DDOT,TLE_LINE0,TLE_LINE1,TLE_LINE2,SEMIMAJOR_AXIS,PERIOD,APOGEE,PERIGEE,DECAYED
52489.0,STARLINK-3923,PAYLOAD,2022-07-19 22:00:00,15.12527976,0.0001804,53.2175,264.2172,34.1266,344.7325,-0.066008,-0.01076992,0.0,0 STARLINK-3923,1 52489U 22049AQ  22200.91667824 -.01076992  00000-0 -66008-1 0  9991,2 52489  53.2175 264.2172 0001804  34.1266 344.7325 15.12527976  1309,6906.630999999999,95.205,529.742,527.25,0.0
52489.0,STARLINK-3923,PAYLOAD,2022-07-20 14:00:01,15.11006615,0.0001826,53.2174,261.2182,36.8731,12.1951,-0.068566,-0.01072476,0.0,0 STARLINK-3923,1 52489U 22049AQ  22201.58334491 -.01072476  00000-0 -68566-1 0  9990,2 52489  53.2174 261.2182 0001826  36.8731  12.1951 15.11006615  1308,6911.266,95.301,534.393,531.869,0.0
52489.0,STARLINK-3923,PAYLOAD,2022-07-20 22:00:01,15.1025006,0.0001911999999999,53.2175,259.7185,33.4685,29.399,-0.070517,-0.01079496,0.0,0 STARLINK-3923,1 52489U 22049AQ  22201.91668981 -.01079496  00000-0 -70517-1 0  9999,2 52489  53.2175 259.7185 0001912  33.4685  29.3990 15.10250060  1308,6913.574000000001,95.348,536.761,534.117,0.0
52489.0,STARLINK-3923,PAYLOAD,2022-07-21 06:00:00,15.09363982,0.0001786999999999,53.2175,258.2217,38.9013,36.7439,-0.039535,-0.00595325,0.0,0 STARLINK-3923,1 52489U 22049AQ  22202.25001157 -.00595325  00000-0 -39535-1 0  9991,2 52489  53.2175 258.2217 0001787  38.9013  36.7439 15.09363982 12019,6916.279,95.404,539.38,536.908,0.0
52489.0,STARLINK-3923,PAYLOAD,2022-07-21 14:00:01,15.08836511,0.0001684,53.2174,256.7267,46.6266,41.062,-3.0383e-05,-7.72e-06,0.0,0 STARLINK-3923,1 52489U 22049AQ  22202.58335648 -.00000772  00000-0 -30383-4 0  9994,2 52489  53.2174 256.7267 0001684  46.6266  41.0620 15.08836511 12066,6917.891,95.438,540.9209999999998,538.591,0.0
52489.0,STARLINK-3923,PAYLOAD,2022-07-21 22:00:00,15.08842118,0.0001747,53.2168,255.2207,49.9995,49.2322,-0.0012366,-0.00019916,0.0,0 STARLINK-3923,1 52489U 22049AQ  22202.91667824 -.00019916  00000-0 -12366-2 0  9994,2 52489  53.2168 255.2207 0001747  49.9995  49.2322 15.08842118  1306,6917.874,95.437,540.947,538.53,0.0
52489.0,STARLINK-3923,PAYLOAD,2022-07-22 06:00:00,15.08862645,0.0001783,53.2164,253.7229,51.0389,59.7925,-0.0012651,-0.00020378,0.0,0 STARLINK-3923,1 52489U 22049AQ  22203.25001157 -.00020378  00000-0 -12651-2 0  9994,2 52489  53.2164 253.7229 0001783  51.0389  59.7925 15.08862645  1302,6917.811,95.436,540.91,538.443,0.0
52489.0,STARLINK-3923,PAYLOAD,2022-07-22 22:00:00,15.08784018,0.0001563,53.2162,250.7299,45.0073,89.0278,0.00076141,0.00011832,0.0,0 STARLINK-3923,1 52489U 22049AQ  22203.91667824  .00011832  00000-0  76141-3 0  9994,2 52489  53.2162 250.7299 0001563  45.0073  89.0278 15.08784018  1307,6918.052,95.441,540.998,538.835,0.0
52489.0,STARLINK-3923,PAYLOAD,2022-07-23 14:00:01,15.08798801,0.0001808,53.2158,247.739,42.0195,115.179,0.002859,0.00045456,0.0,0 STARLINK-3923,1 52489U 22049AQ  22204.58335648  .00045456  00000-0  28590-2 0  9997,2 52489  53.2158 247.7390 0001808  42.0195 115.1790 15.08798801  1309,6918.005999999999,95.44,541.122,538.621,0.0
52489.0,STARLINK-3923,PAYLOAD,2022-07-23 22:00:00,15.08813488,0.0001610999999999,53.2157,246.2411,47.2644,121.4487,0.0016485,0.00026026,0.0,0 STARLINK-3923,1 52489U 22049AQ  22204.91667824  .00026026  00000-0  16485-2 0  9990,2 52489  53.2157 246.2411 0001611  47.2644 121.4487 15.08813488  1306,6917.9609999999975,95.439,540.941,538.712,0.0
52489.0,STARLINK-3923,PAYLOAD,2022-07-24 14:00:01,15.08811728,0.0001819,53.2151,243.2502,43.0174,148.8553,0.0024697,0.00039206,0.0,0 STARLINK-3923,1 52489U 22049AQ  22205.58334491  .00039206  00000-0  24697-2 0  9993,2 52489  53.2151 243.2502 0001819  43.0174 148.8553 15.08811728  1302,6917.967,95.439,541.09,538.573,0.0
52489.0,STARLINK-3923,PAYLOAD,2022-07-24 22:00:00,15.08815818,0.0001641999999999,53.215,241.7522,48.2679,155.1911,0.0018298,0.00028934,0.0,0 STARLINK-3923,1 52489U 22049AQ  22205.91667824  .00028934  00000-0  18298-2 0  9995,2 52489  53.2150 241.7522 0001642  48.2679 155.1911 15.08815818  1300,6917.954000000002,95.439,540.955,538.683,0.0
52489.0,STARLINK-3923,PAYLOAD,2022-07-25 06:00:00,15.08849514,0.000173,53.215,240.2567,49.0379,165.9961,-0.0017640999999999,-0.00028262,0.0,0 STARLINK-3923,1 52489U 22049AQ  22206.25001157 -.00028262  00000-0 -17641-2 0  9991,2 52489  53.2150 240.2567 0001730  49.0379 165.9961 15.08849514 12617,6917.851,95.437,540.913,538.52,0.0
52489.0,STARLINK-3923,PAYLOAD,2022-07-25 14:00:01,15.08820744,0.0001859,53.2153,238.7612,43.5829,183.0466,0.0019116,0.0003025,0.0,0 STARLINK-3923,1 52489U 22049AQ  22206.58334491  .00030250  00000-0  19116-2 0  9994,2 52489  53.2153 238.7612 0001859  43.5829 183.0466 15.08820744  1303,6917.939,95.439,541.09,538.518,0.0
52489.0,STARLINK-3923,PAYLOAD,2022-07-25 22:00:00,15.08817583,0.0001706,53.2163,237.263,48.5953,189.6289,0.0021238,0.00033653,0.0,0 STARLINK-3923,1 52489U 22049AQ  22206.91667824  .00033653  00000-0  21238-2 0  9998,2 52489  53.2163 237.2630 0001706  48.5953 189.6289 15.08817583 12711,6917.949000000001,95.439,540.994,538.634,0.0
52489.0,STARLINK-3923,PAYLOAD,2022-07-26 14:00:01,15.08835212,0.0001921,53.216,234.2721,43.8446,217.5638,0.0015513,0.00024484,0.0,0 STARLINK-3923,1 52489U 22049AQ  22207.58334491  .00024484  00000-0  15513-2 0  9994,2 52489  53.2160 234.2721 0001921  43.8446 217.5638 15.08835212 12820,6917.895,95.438,541.089,538.431,0.0
52489.0,STARLINK-3923,PAYLOAD,2022-07-26 22:00:00,15.08821997,0.0001786999999999,53.2161,232.7739,48.9562,224.0558,0.0025182,0.00039997,0.0,0 STARLINK-3923,1 52489U 22049AQ  22207.91667824  .00039997  00000-0  25182-2 0  9998,2 52489  53.2161 232.7739 0001787  48.9562 224.0558 15.08821997  1308,6917.935,95.439,541.0369999999998,538.564,0.0
52489.0,STARLINK-3923,PAYLOAD,2022-07-27 06:00:02,15.0885966,0.0001921,53.2161,231.2785,48.3315,236.3324,-0.0016567,-0.00026572,0.0,0 STARLINK-3923,1 52489U 22049AQ  22208.25002315 -.00026572  00000-0 -16567-2 0  9998,2 52489  53.2161 231.2785 0001921  48.3315 236.3324 15.08859660 12928,6917.82,95.436,541.014,538.356,0.0
52489.0,STARLINK-3923,PAYLOAD,2022-07-27 14:00:01,15.08843744,0.0002014,53.216,229.7828,43.8834,252.3223,0.00072632,0.00011291,0.0,0 STARLINK-3923,1 52489U 22049AQ  22208.58334491  .00011291  00000-0  72632-3 0  9993,2 52489  53.2160 229.7828 0002014  43.8834 252.3223 15.08843744  1309,6917.869000000002,95.437,541.127,538.341,0.0
52489.0,STARLINK-3923,PAYLOAD,2022-07-27 22:00:00,15.08826784,0.000188,53.2163,228.2846,49.4409,258.3802,0.0028247,0.00044938,0.0,0 STARLINK-3923,1 52489U 22049AQ  22208.91667824  .00044938  00000-0  28247-2 0  9995,2 52489  53.2163 228.2846 0001880  49.4409 258.3802 15.08826784  1300,6917.920999999999,95.438,541.086,538.485,0.0
52489.0,STARLINK-3923,PAYLOAD,2022-07-28 00:00:00,15.08834807,0.0001902,53.2163,227.9103,50.7681,349.9494,0.0023413,0.00037166,0.0,0 STARLINK-3923,1 52489U 22049AQ  22209.00001157  .00037166  00000-0  23413-2 0  9992,2 52489  53.2163 227.9103 0001902  50.7681 349.9494 15.08834807 13036,6917.896,95.438,541.077,538.445,0.0
52489.0,STARLINK-3923,PAYLOAD,2022-07-28 14:00:01,15.08855727,0.0002098,53.2162,225.2934,44.4255,286.6033,0.00013008,1.783e-05,0.0,0 STARLINK-3923,1 52489U 22049AQ  22209.58334491  .00001783  00000-0  13008-3 0  9991,2 52489  53.2162 225.2934 0002098  44.4255 286.6033 15.08855727  1309,6917.831999999999,95.437,541.149,538.246,0.0
52489.0,STARLINK-3923,PAYLOAD,2022-07-28 22:00:00,15.08841148,0.0001913,53.2166,223.7953,49.7175,292.9337,0.001266,0.00019919,0.0,0 STARLINK-3923,1 52489U 22049AQ  22209.91667824  .00019919  00000-0  12660-2 0  9999,2 52489  53.2166 223.7953 0001913  49.7175 292.9337 15.08841148  1300,6917.877,95.437,541.065,538.418,0.0
52489.0,STARLINK-3923,PAYLOAD,2022-07-29 00:00:00,15.08857355,0.0001943,53.2167,223.421,50.6079,24.9401,-0.00080507,-0.00013084,0.0,0 STARLINK-3923,1 52489U 22049AQ  22210.00001157 -.00013084  00000-0 -80507-3 0  9997,2 52489  53.2167 223.4210 0001943  50.6079  24.9401 15.08857355 13182,6917.8269999999975,95.436,541.036,538.3480000000002,0.0
52489.0,STARLINK-3923,PAYLOAD,2022-07-29 14:00:01,15.08837009,0.0002069,53.2165,220.8039,42.9945,322.8513,-0.00047185,-7.789e-05,0.0,0 STARLINK-3923,1 52489U 22049AQ  22210.58334491 -.00007789  00000-0 -47185-3 0  9990,2 52489  53.2165 220.8039 0002069  42.9945 322.8513 15.08837009  1305,6917.89,95.438,541.186,538.323,0.0
52489.0,STARLINK-3923,PAYLOAD,2022-07-29 22:00:00,15.08808506,0.0001889999999999,53.2168,219.306,49.1819,328.2592,0.0029069,0.00046239,0.0,0 STARLINK-3923,1 52489U 22049AQ  22210.91667824  .00046239  00000-0  29069-2 0  9997,2 52489  53.2168 219.3060 0001890  49.1819 328.2592 15.08808506  1302,6917.977,95.44,541.149,538.534,0.0
52489.0,STARLINK-3923,PAYLOAD,2022-07-30 06:00:00,15.08845423,0.0002056,53.217,217.811,46.7631,342.2542,-0.0017417,-0.00027905,0.0,0 STARLINK-3923,1 52489U 22049AQ  22211.25001157 -.00027905  00000-0 -17417-2 0  9991,2 52489  53.2170 217.8110 0002056  46.7631 342.2542 15.08845423 13374,6917.864000000001,95.437,541.151,538.307,0.0
52489.0,STARLINK-3923,PAYLOAD,2022-07-30 14:00:01,15.08842878,0.0002089,53.2167,216.3147,44.2419,356.3615,-0.0009186,-0.0001488,0.0,0 STARLINK-3923,1 52489U 22049AQ  22211.58334491 -.00014880  00000-0 -91860-3 0  9990,2 52489  53.2167 216.3147 0002089  44.2419 356.3615 15.08842878  1305,6917.871999999999,95.437,541.182,538.2909999999998,0.0
52489.0,STARLINK-3923,PAYLOAD,2022-07-30 22:00:00,15.08813778,0.0001909999999999,53.2169,214.8168,50.6306,1.5726,0.0027506,0.00043729,0.0,0 STARLINK-3923,1 52489U 22049AQ  22211.91667824  .00043729  00000-0  27506-2 0  9993,2 52489  53.2169 214.8168 0001910  50.6306   1.5726 15.08813778 13471,6917.9609999999975,95.439,541.1469999999998,538.504,0.0
